OBJECT_NAME,OBJECT_ID,EPOCH,MEAN_MOTION,ECCENTRICITY,INCLINATION,RA_OF_ASC_NODE,ARG_OF_PERICENTER,MEAN_ANOMALY,EPHEMERIS_TYPE,CLASSIFICATION_TYPE,NORAD_CAT_ID,ELEMENT_SET_NO,REV_AT_EPOCH,BSTAR,MEAN_MOTION_DOT,MEAN_MOTION_DDOT
HAWK-5A,2022-057AB,2026-07-15T16:08:49.899264,15.52335355,.0003296,97.6624,357.3858,335.8697,24.2400,0,U,52757,999,23076,.20573E-3,.12426E-3,0
HAWK-6B,2023-011A,2026-07-15T09:05:11.589504,15.23154469,.00041894,40.4971,187.6092,241.6135,118.4252,0,U,55324,999,19214,.11216102E-3,.251E-4,0
HAWK-6C,2023-011C,2026-07-15T09:04:17.032224,15.23155670,.00047142,40.4961,184.4487,234.6057,125.4312,0,U,55326,999,19215,.10235967E-3,.2273E-4,0
HAWK-6A,2023-011D,2026-07-15T09:04:20.260128,15.23155263,.00042849,40.4971,186.0753,231.8799,128.1625,0,U,55327,999,19215,.10689843E-3,.2383E-4,0
HAWK-7A,2023-054P,2026-07-15T17:42:07.115040,15.27636231,.0001351,97.2662,83.3491,330.3514,29.7649,0,U,56191,999,18138,.11973E-3,.3162E-4,0
HAWK-7B,2023-054R,2026-07-15T17:42:01.205280,15.27634662,.0001249,97.2688,81.6230,15.9411,344.1867,0,U,56193,999,18138,.12078E-3,.319E-4,0
HAWK-7C,2023-054Y,2026-07-15T12:58:52.140000,15.27636055,.0000883,97.2664,82.1915,353.9990,6.1239,0,U,56200,999,18135,.11954E-3,.3157E-4,0
